TIANMU-1 10             
1 57402U 23101D   26063.59718264  .00010706  00000+0  37961-3 0  9996
2 57402  97.2758 116.8538 0007006 146.9639 213.2040 15.29234858145651
FENGYUN 3F              
1 57490U 23111A   26063.82581072  .00000118  00000+0  75860-4 0  9992
2 57490  98.6937 135.7416 0001321  82.2382 277.8944 14.19918206134053
ARKTIKA-M 2             
1 58584U 23198A   26062.08261615  .00000137  00000+0  00000+0 0  9997
2 58584  63.2203 166.1216 6876963 267.7841  18.8417  2.00614888 16194
TIANMU-1 11             
1 58645U 23205A   26063.88762512  .00008995  00000+0  35419-3 0  9991
2 58645  97.3545  87.1160 0009587  24.5698 335.5995 15.25802493121618
TIANMU-1 12             
1 58646U 23205B   26063.85422828  .00009168  00000+0  36193-3 0  9995
2 58646  97.3533  86.8634 0007339  11.5506 348.5899 15.25725771121592
TIANMU-1 13             
1 58647U 23205C   26063.88528274  .00008996  00000+0  35471-3 0  9997
2 58647  97.3561  87.1307 0006971 352.0730   8.0397 15.25774406121598
TIANMU-1 14             
1 58648U 23205D   26063.86977970  .00009582  00000+0  37779-3 0  9992
2 58648  97.3495  86.3886 0007899 355.3174   4.7989 15.25752712121592
TIANMU-1 19             
1 58660U 23208A   26063.82404900  .00013332  00000+0  46541-3 0  9998
2 58660  97.4389 179.8068 0004230 338.0510  22.0549 15.29710378121363
TIANMU-1 20             
1 58661U 23208B   26063.81214056  .00013280  00000+0  44682-3 0  9995
2 58661  97.4328 180.3235 0006568 344.3289  15.7748 15.30898988121444
TIANMU-1 21             
1 58662U 23208C   26063.81702336  .00015380  00000+0  48592-3 0  9996
2 58662  97.4382 182.5845 0006330 337.7136  22.3830 15.32890233121566
TIANMU-1 22             
1 58663U 23208D   26063.84048337  .00012197  00000+0  43100-3 0  9997
2 58663  97.4384 179.8373 0003519  11.7328 348.3993 15.29336704121376
TIANMU-1 15             
1 58700U 24004A   26063.86753700  .00009430  00000+0  37205-3 0  9998
2 58700  97.4662 250.1126 0007063   7.0279 353.1057 15.25748426119867
TIANMU-1 16             
1 58701U 24004B   26063.85112902  .00010637  00000+0  41889-3 0  9995
2 58701  97.4603 249.4228 0005607  13.0502 347.0880 15.25783399119869
TIANMU-1 17             
1 58702U 24004C   26063.83357450  .00009629  00000+0  37915-3 0  9997
2 58702  97.4635 249.8567 0004853  16.6808 343.4589 15.25818894119859
TIANMU-1 18             
1 58703U 24004D   26063.81857782  .00009639  00000+0  38012-3 0  9999
2 58703  97.4653 250.0525 0004256  17.7717 342.3669 15.25768517119859
INSAT-3DS               
1 58990U 24033A   26063.75322707 -.00000166  00000+0  00000+0 0  9995
2 58990   0.0550 263.5053 0002326  95.3714 156.8369  1.00270311 46024
METEOR-M2 4             
1 59051U 24039A   26063.86583466  .00000041  00000+0  38155-4 0  9991
2 59051  98.6899  24.5417 0008083 108.3768 251.8289 14.22416230104438
