[{"OBJECT_NAME":"TIANMU-1 10","OBJECT_ID":"2023-101D","EPOCH":"2026-03-04T14:19:56.580096","MEAN_MOTION":15.29234858,"ECCENTRICITY":0.0007006,"INCLINATION":97.2758,"RA_OF_ASC_NODE":116.8538,"ARG_OF_PERICENTER":146.9639,"MEAN_ANOMALY":213.204,"EPHEMERIS_TYPE":0,"CLASSIFICATION_TYPE":"U","NORAD_CAT_ID":57402,"ELEMENT_SET_NO":999,"REV_AT_EPOCH":14565,"BSTAR":0.00037961,"MEAN_MOTION_DOT":0.00010706,"MEAN_MOTION_DDOT":0},{"OBJECT_NAME":"FENGYUN 3F","OBJECT_ID":"2023-111A","EPOCH":"2026-03-04T19:49:10.046208","MEAN_MOTION":14.19918206,"ECCENTRICITY":0.0001321,"INCLINATION":98.6937,"RA_OF_ASC_NODE":135.7416,"ARG_OF_PERICENTER":82.2382,"MEAN_ANOMALY":277.8944,"EPHEMERIS_TYPE":0,"CLASSIFICATION_TYPE":"U","NORAD_CAT_ID":57490,"ELEMENT_SET_NO":999,"REV_AT_EPOCH":13405,"BSTAR":7.586e-5,"MEAN_MOTION_DOT":1.18e-6,"MEAN_MOTION_DDOT":0},{"OBJECT_NAME":"ARKTIKA-M 2","OBJECT_ID":"2023-198A","EPOCH":"2026-03-03T01:58:58.035360","MEAN_MOTION":2.00614888,"ECCENTRICITY":0.68769635,"INCLINATION":63.2203,"RA_OF_ASC_NODE":166.1216,"ARG_OF_PERICENTER":267.7841,"MEAN_ANOMALY":18.8417,"EPHEMERIS_TYPE":0,"CLASSIFICATION_TYPE":"U","NORAD_CAT_ID":58584,"ELEMENT_SET_NO":999,"REV_AT_EPOCH":1619,"BSTAR":0,"MEAN_MOTION_DOT":1.37e-6,"MEAN_MOTION_DDOT":0},{"OBJECT_NAME":"TIANMU-1 11","OBJECT_ID":"2023-205A","EPOCH":"2026-03-04T21:18:10.810368","MEAN_MOTION":15.25802493,"ECCENTRICITY":0.0009587,"INCLINATION":97.3545,"RA_OF_ASC_NODE":87.116,"ARG_OF_PERICENTER":24.5698,"MEAN_ANOMALY":335.5995,"EPHEMERIS_TYPE":0,"CLASSIFICATION_TYPE":"U","NORAD_CAT_ID":58645,"ELEMENT_SET_NO":999,"REV_AT_EPOCH":12161,"BSTAR":0.00035419,"MEAN_MOTION_DOT":8.995e-5,"MEAN_MOTION_DDOT":0},{"OBJECT_NAME":"TIANMU-1 12","OBJECT_ID":"2023-205B","EPOCH":"2026-03-04T20:30:05.323392","MEAN_MOTION":15.25725771,"ECCENTRICITY":0.0007339,"INCLINATION":97.3533,"RA_OF_ASC_NODE":86.8634,"ARG_OF_PERICENTER":11.5506,"MEAN_ANOMALY":348.5899,"EPHEMERIS_TYPE":0,"CLASSIFICATION_TYPE":"U","NORAD_CAT_ID":58646,"ELEMENT_SET_NO":999,"REV_AT_EPOCH":12159,"BSTAR":0.00036193,"MEAN_MOTION_DOT":9.168e-5,"MEAN_MOTION_DDOT":0},{"OBJECT_NAME":"TIANMU-1 13","OBJECT_ID":"2023-205C","EPOCH":"2026-03-04T21:14:48.428736","MEAN_MOTION":15.25774406,"ECCENTRICITY":0.0006971,"INCLINATION":97.3561,"RA_OF_ASC_NODE":87.1307,"ARG_OF_PERICENTER":352.073,"MEAN_ANOMALY":8.0397,"EPHEMERIS_TYPE":0,"CLASSIFICATION_TYPE":"U","NORAD_CAT_ID":58647,"ELEMENT_SET_NO":999,"REV_AT_EPOCH":12159,"BSTAR":0.00035471,"MEAN_MOTION_DOT":8.996e-5,"MEAN_MOTION_DDOT":0},{"OBJECT_NAME":"TIANMU-1 14","OBJECT_ID":"2023-205D","EPOCH":"2026-03-04T20:52:28.966080","MEAN_MOTION":15.25752712,"ECCENTRICITY":0.0007899,"INCLINATION":97.3495,"RA_OF_ASC_NODE":86.3886,"ARG_OF_PERICENTER":355.3174,"MEAN_ANOMALY":4.7989,"EPHEMERIS_TYPE":0,"CLASSIFICATION_TYPE":"U","NORAD_CAT_ID":58648,"ELEMENT_SET_NO":999,"REV_AT_EPOCH":12159,"BSTAR":0.00037779,"MEAN_MOTION_DOT":9.582e-5,"MEAN_MOTION_DDOT":0},{"OBJECT_NAME":"TIANMU-1 19","OBJECT_ID":"2023-208A","EPOCH":"2026-03-04T19:46:37.833600","MEAN_MOTION":15.29710378,"ECCENTRICITY":0.000423,"INCLINATION":97.4389,"RA_OF_ASC_NODE":179.8068,"ARG_OF_PERICENTER":338.051,"MEAN_ANOMALY":22.0549,"EPHEMERIS_TYPE":0,"CLASSIFICATION_TYPE":"U","NORAD_CAT_ID":58660,"ELEMENT_SET_NO":999,"REV_AT_EPOCH":12136,"BSTAR":0.00046541,"MEAN_MOTION_DOT":0.00013332,"MEAN_MOTION_DDOT":0},{"OBJECT_NAME":"TIANMU-1 20","OBJECT_ID":"2023-208B","EPOCH":"2026-03-04T19:29:28.944384","MEAN_MOTION":15.30898988,"ECCENTRICITY":0.0006568,"INCLINATION":97.4328,"RA_OF_ASC_NODE":180.3235,"ARG_OF_PERICENTER":344.3289,"MEAN_ANOMALY":15.7748,"EPHEMERIS_TYPE":0,"CLASSIFICATION_TYPE":"U","NORAD_CAT_ID":58661,"ELEMENT_SET_NO":999,"REV_AT_EPOCH":12144,"BSTAR":0.00044682,"MEAN_MOTION_DOT":0.0001328,"MEAN_MOTION_DDOT":0},{"OBJECT_NAME":"TIANMU-1 21","OBJECT_ID":"2023-208C","EPOCH":"2026-03-04T19:36:30.818304","MEAN_MOTION":15.32890233,"ECCENTRICITY":0.000633,"INCLINATION":97.4382,"RA_OF_ASC_NODE":182.5845,"ARG_OF_PERICENTER":337.7136,"MEAN_ANOMALY":22.383,"EPHEMERIS_TYPE":0,"CLASSIFICATION_TYPE":"U","NORAD_CAT_ID":58662,"ELEMENT_SET_NO":999,"REV_AT_EPOCH":12156,"BSTAR":0.00048592,"MEAN_MOTION_DOT":0.0001538,"MEAN_MOTION_DDOT":0},{"OBJECT_NAME":"TIANMU-1 22","OBJECT_ID":"2023-208D","EPOCH":"2026-03-04T20:10:17.763168","MEAN_MOTION":15.29336704,"ECCENTRICITY":0.0003519,"INCLINATION":97.4384,"RA_OF_ASC_NODE":179.8373,"ARG_OF_PERICENTER":11.7328,"MEAN_ANOMALY":348.3993,"EPHEMERIS_TYPE":0,"CLASSIFICATION_TYPE":"U","NORAD_CAT_ID":58663,"ELEMENT_SET_NO":999,"REV_AT_EPOCH":12137,"BSTAR":0.000431,"MEAN_MOTION_DOT":0.00012197,"MEAN_MOTION_DDOT":0},{"OBJECT_NAME":"TIANMU-1 15","OBJECT_ID":"2024-004A","EPOCH":"2026-03-04T20:49:15.196800","MEAN_MOTION":15.25748426,"ECCENTRICITY":0.0007063,"INCLINATION":97.4662,"RA_OF_ASC_NODE":250.1126,"ARG_OF_PERICENTER":7.0279,"MEAN_ANOMALY":353.1057,"EPHEMERIS_TYPE":0,"CLASSIFICATION_TYPE":"U","NORAD_CAT_ID":58700,"ELEMENT_SET_NO":999,"REV_AT_EPOCH":11986,"BSTAR":0.00037205,"MEAN_MOTION_DOT":9.43e-5,"MEAN_MOTION_DDOT":0},{"OBJECT_NAME":"TIANMU-1 16","OBJECT_ID":"2024-004B","EPOCH":"2026-03-04T20:25:37.547328","MEAN_MOTION":15.25783399,"ECCENTRICITY":0.0005607,"INCLINATION":97.4603,"RA_OF_ASC_NODE":249.4228,"ARG_OF_PERICENTER":13.0502,"MEAN_ANOMALY":347.088,"EPHEMERIS_TYPE":0,"CLASSIFICATION_TYPE":"U","NORAD_CAT_ID":58701,"ELEMENT_SET_NO":999,"REV_AT_EPOCH":11986,"BSTAR":0.00041889,"MEAN_MOTION_DOT":0.00010637,"MEAN_MOTION_DDOT":0},{"OBJECT_NAME":"TIANMU-1 17","OBJECT_ID":"2024-004C","EPOCH":"2026-03-04T20:00:20.836800","MEAN_MOTION":15.25818894,"ECCENTRICITY":0.0004853,"INCLINATION":97.4635,"RA_OF_ASC_NODE":249.8567,"ARG_OF_PERICENTER":16.6808,"MEAN_ANOMALY":343.4589,"EPHEMERIS_TYPE":0,"CLASSIFICATION_TYPE":"U","NORAD_CAT_ID":58702,"ELEMENT_SET_NO":999,"REV_AT_EPOCH":11985,"BSTAR":0.00037915,"MEAN_MOTION_DOT":9.629e-5,"MEAN_MOTION_DDOT":0},{"OBJECT_NAME":"TIANMU-1 18","OBJECT_ID":"2024-004D","EPOCH":"2026-03-04T19:38:45.123648","MEAN_MOTION":15.25768517,"ECCENTRICITY":0.0004256,"INCLINATION":97.4653,"RA_OF_ASC_NODE":250.0525,"ARG_OF_PERICENTER":17.7717,"MEAN_ANOMALY":342.3669,"EPHEMERIS_TYPE":0,"CLASSIFICATION_TYPE":"U","NORAD_CAT_ID":58703,"ELEMENT_SET_NO":999,"REV_AT_EPOCH":11985,"BSTAR":0.00038012,"MEAN_MOTION_DOT":9.639e-5,"MEAN_MOTION_DDOT":0},{"OBJECT_NAME":"INSAT-3DS","OBJECT_ID":"2024-033A","EPOCH":"2026-03-04T18:04:38.818848","MEAN_MOTION":1.00270311,"ECCENTRICITY":0.0002326,"INCLINATION":0.055,"RA_OF_ASC_NODE":263.5053,"ARG_OF_PERICENTER":95.3714,"MEAN_ANOMALY":156.8369,"EPHEMERIS_TYPE":0,"CLASSIFICATION_TYPE":"U","NORAD_CAT_ID":58990,"ELEMENT_SET_NO":999,"REV_AT_EPOCH":4602,"BSTAR":0,"MEAN_MOTION_DOT":-1.66e-6,"MEAN_MOTION_DDOT":0},{"OBJECT_NAME":"METEOR-M2 4","OBJECT_ID":"2024-039A","EPOCH":"2026-03-04T20:46:48.114624","MEAN_MOTION":14.2241623,"ECCENTRICITY":0.0008083,"INCLINATION":98.6899,"RA_OF_ASC_NODE":24.5417,"ARG_OF_PERICENTER":108.3768,"MEAN_ANOMALY":251.8289,"EPHEMERIS_TYPE":0,"CLASSIFICATION_TYPE":"U","NORAD_CAT_ID":59051,"ELEMENT_SET_NO":999,"REV_AT_EPOCH":10443,"BSTAR":3.8155e-5,"MEAN_MOTION_DOT":4.1e-7,"MEAN_MOTION_DDOT":0}]
